start=new Date('2021-12-21T00:00:00.000Z').valueOf();
sats=[{"ECCENTRICITY":"0.00025340","PERIAPSIS":"545.447","ELEMENT_SET_NO":"999","OBJECT_ID":"2020-019A","BSTAR":"0.00018041000000","GP_ID":"192110068","NORAD_CAT_ID":"45360","MEAN_MOTION_DOT":"0.00002407","MEAN_MOTION_DDOT":"0.0000000000000","OBJECT_NAME":"STARLINK-1279","LAUNCH_DATE":"2020-03-18","EPOCH":"2021-12-20T21:26:52.732896","APOAPSIS":"548.957","REF_FRAME":"TEME","ARG_OF_PERICENTER":"77.1279","TLE_LINE1":"1 45360U 20019A   21354.89366589  .00002407  00000-0  18041-3 0  9999","OBJECT_TYPE":"PAYLOAD","PERIOD":"95.592","RA_OF_ASC_NODE":"209.0316","RCS_SIZE":"LARGE","MEAN_ANOMALY":"282.9993","MEAN_MOTION":"15.06403764","TLE_LINE2":"2 45360  53.0540 209.0316 0002534  77.1279 282.9993 15.06403764 98055","COUNTRY_CODE":"US","TIME_SYSTEM":"UTC","CENTER_NAME":"EARTH","FILE":"3245895","DECAY_DATE":null,"CLASSIFICATION_TYPE":"U","SEMIMAJOR_AXIS":"6925.337","REV_AT_EPOCH":"9805","MEAN_ELEMENT_THEORY":"SGP4","INCLINATION":"53.0540","EPHEMERIS_TYPE":"0","SITE":"AFETR"},{"MEAN_MOTION":"15.06396001","MEAN_ANOMALY":"285.6085","CENTER_NAME":"EARTH","TIME_SYSTEM":"UTC","COUNTRY_CODE":"US","TLE_LINE2":"2 45361  53.0529 219.3830 0002580  74.5189 285.6085 15.06396001 97911","SEMIMAJOR_AXIS":"6925.361","CLASSIFICATION_TYPE":"U","DECAY_DATE":null,"FILE":"3245895","SITE":"AFETR","EPHEMERIS_TYPE":"0","INCLINATION":"53.0529","MEAN_ELEMENT_THEORY":"SGP4","REV_AT_EPOCH":"9791","GP_ID":"192111319","BSTAR":"0.00006257000000","NORAD_CAT_ID":"45361","ELEMENT_SET_NO":"999","OBJECT_ID":"2020-019B","PERIAPSIS":"545.439","ECCENTRICITY":"0.00025800","APOAPSIS":"549.013","EPOCH":"2021-12-20T19:34:05.216160","LAUNCH_DATE":"2020-03-18","OBJECT_NAME":"STARLINK-1301","MEAN_MOTION_DDOT":"0.0000000000000","MEAN_MOTION_DOT":"0.00000650","REF_FRAME":"TEME","RCS_SIZE":"LARGE","RA_OF_ASC_NODE":"219.3830","PERIOD":"95.592","OBJECT_TYPE":"PAYLOAD","TLE_LINE1":"1 45361U 20019B   21354.81533815  .00000650  00000-0  62570-4 0  9995","ARG_OF_PERICENTER":"74.5189"},{"REV_AT_EPOCH":"9764","INCLINATION":"53.0544","EPHEMERIS_TYPE":"0","SITE":"AFETR","MEAN_ELEMENT_THEORY":"SGP4","DECAY_DATE":null,"FILE":"3245895","SEMIMAJOR_AXIS":"6925.360","CLASSIFICATION_TYPE":"U","COUNTRY_CODE":"US","TLE_LINE2":"2 45362  53.0544 238.8788 0002411  63.7434 296.3802 15.06396195 97643","CENTER_NAME":"EARTH","TIME_SYSTEM":"UTC","MEAN_MOTION":"15.06396195","MEAN_ANOMALY":"296.3802","PERIOD":"95.592","RA_OF_ASC_NODE":"238.8788","ARG_OF_PERICENTER":"63.7434","TLE_LINE1":"1 45362U 20019C   21354.92776282  .00001577  00000-0  12480-3 0  9998","OBJECT_TYPE":"PAYLOAD","RCS_SIZE":"LARGE","REF_FRAME":"TEME","LAUNCH_DATE":"2020-03-18","OBJECT_NAME":"STARLINK-1306","EPOCH":"2021-12-20T22:15:58.707648","MEAN_MOTION_DOT":"0.00001577","MEAN_MOTION_DDOT":"0.0000000000000","APOAPSIS":"548.895","OBJECT_ID":"2020-019C","ELEMENT_SET_NO":"999","ECCENTRICITY":"0.00024110","PERIAPSIS":"545.556","BSTAR":"0.00012480000000","GP_ID":"192111570","NORAD_CAT_ID":"45362"},{"TLE_LINE1":"1 45364U 20019E   21354.88998040  .00002036  00000-0  15557-3 0  9992","OBJECT_TYPE":"PAYLOAD","ARG_OF_PERICENTER":"76.9738","RA_OF_ASC_NODE":"209.0527","PERIOD":"95.592","RCS_SIZE":"LARGE","REF_FRAME":"TEME","MEAN_MOTION_DDOT":"0.0000000000000","MEAN_MOTION_DOT":"0.00002036","EPOCH":"2021-12-20T21:21:34.306560","OBJECT_NAME":"STARLINK-1313","LAUNCH_DATE":"2020-03-18","APOAPSIS":"548.721","PERIAPSIS":"545.706","ECCENTRICITY":"0.00021770","OBJECT_ID":"2020-019E","ELEMENT_SET_NO":"999","GP_ID":"192110318","BSTAR":"0.00015557000000","NORAD_CAT_ID":"45364","REV_AT_EPOCH":"9805","MEAN_ELEMENT_THEORY":"SGP4","EPHEMERIS_TYPE":"0","SITE":"AFETR","INCLINATION":"53.0540","FILE":"3245895","DECAY_DATE":null,"CLASSIFICATION_TYPE":"U","SEMIMAJOR_AXIS":"6925.348","TLE_LINE2":"2 45364  53.0540 209.0527 0002177  76.9738 283.1494 15.06400051 98058","COUNTRY_CODE":"US","TIME_SYSTEM":"UTC","CENTER_NAME":"EARTH","MEAN_MOTION":"15.06400051","MEAN_ANOMALY":"283.1494"},{"BSTAR":"0.00023938000000","GP_ID":"192110568","NORAD_CAT_ID":"45365","ECCENTRICITY":"0.00022340","PERIAPSIS":"548.137","OBJECT_ID":"2020-019F","ELEMENT_SET_NO":"999","APOAPSIS":"551.232","MEAN_MOTION_DOT":"0.00003211","MEAN_MOTION_DDOT":"0.0000000000000","LAUNCH_DATE":"2020-03-18","OBJECT_NAME":"STARLINK-1317","EPOCH":"2021-12-20T19:14:03.847488","REF_FRAME":"TEME","RCS_SIZE":"LARGE","ARG_OF_PERICENTER":"81.2289","TLE_LINE1":"1 45365U 20019F   21354.80143342  .00003211  00000-0  23938-3 0  9990","OBJECT_TYPE":"PAYLOAD","PERIOD":"95.643","RA_OF_ASC_NODE":"219.4558","MEAN_MOTION":"15.05594171","MEAN_ANOMALY":"278.8952","TIME_SYSTEM":"UTC","CENTER_NAME":"EARTH","TLE_LINE2":"2 45365  52.9998 219.4558 0002234  81.2289 278.8952 15.05594171 97872","COUNTRY_CODE":"US","CLASSIFICATION_TYPE":"U","SEMIMAJOR_AXIS":"6927.819","FILE":"3245895","DECAY_DATE":null,"MEAN_ELEMENT_THEORY":"SGP4","INCLINATION":"52.9998","EPHEMERIS_TYPE":"0","SITE":"AFETR","REV_AT_EPOCH":"9787"},{"CLASSIFICATION_TYPE":"U","SEMIMAJOR_AXIS":"6925.312","FILE":"3245895","DECAY_DATE":null,"MEAN_ELEMENT_THEORY":"SGP4","INCLINATION":"53.0527","EPHEMERIS_TYPE":"0","SITE":"AFETR","REV_AT_EPOCH":"9765","MEAN_MOTION":"15.06411797","MEAN_ANOMALY":"289.8343","TIME_SYSTEM":"UTC","CENTER_NAME":"EARTH","TLE_LINE2":"2 45366  53.0527 238.9399 0002516  70.2917 289.8343 15.06411797 97656","COUNTRY_CODE":"US","REF_FRAME":"TEME","RCS_SIZE":"LARGE","ARG_OF_PERICENTER":"70.2917","TLE_LINE1":"1 45366U 20019G   21354.91300774  .00002659  00000-0  19732-3 0  9999","OBJECT_TYPE":"PAYLOAD","PERIOD":"95.591","RA_OF_ASC_NODE":"238.9399","NORAD_CAT_ID":"45366","GP_ID":"192110820","BSTAR":"0.00019732000000","ECCENTRICITY":"0.00025160","PERIAPSIS":"545.435","OBJECT_ID":"2020-019G","ELEMENT_SET_NO":"999","APOAPSIS":"548.920","MEAN_MOTION_DOT":"0.00002659","MEAN_MOTION_DDOT":"0.0000000000000","LAUNCH_DATE":"2020-03-18","OBJECT_NAME":"STARLINK-1262","EPOCH":"2021-12-20T21:54:43.868736"},{"TLE_LINE2":"2 45367  53.0532 238.8574 0002531  71.8510 288.2754 15.06423096 97654","COUNTRY_CODE":"US","TIME_SYSTEM":"UTC","CENTER_NAME":"EARTH","MEAN_MOTION":"15.06423096","MEAN_ANOMALY":"288.2754","REV_AT_EPOCH":"9765","MEAN_ELEMENT_THEORY":"SGP4","SITE":"AFETR","EPHEMERIS_TYPE":"0","INCLINATION":"53.0532","FILE":"3245895","DECAY_DATE":null,"CLASSIFICATION_TYPE":"U","SEMIMAJOR_AXIS":"6925.278","MEAN_MOTION_DDOT":"0.0000000000000","MEAN_MOTION_DOT":"0.00010189","EPOCH":"2021-12-20T22:26:35.346912","LAUNCH_DATE":"2020-03-18","OBJECT_NAME":"STARLINK-1273","APOAPSIS":"548.896","PERIAPSIS":"545.390","ECCENTRICITY":"0.00025310","OBJECT_ID":"2020-019H","ELEMENT_SET_NO":"999","BSTAR":"0.00070147000000","GP_ID":"192111071","NORAD_CAT_ID":"45367","TLE_LINE1":"1 45367U 20019H   21354.93513133  .00010189  00000-0  70147-3 0  9991","OBJECT_TYPE":"PAYLOAD","ARG_OF_PERICENTER":"71.8510","RA_OF_ASC_NODE":"238.8574","PERIOD":"95.591","RCS_SIZE":"LARGE","REF_FRAME":"TEME"},{"REF_FRAME":"TEME","RCS_SIZE":"LARGE","RA_OF_ASC_NODE":"239.2734","PERIOD":"95.592","TLE_LINE1":"1 45368U 20019J   21354.83929821 -.00000287  00000-0 -30440-6 0  9991","OBJECT_TYPE":"PAYLOAD","ARG_OF_PERICENTER":"72.2920","NORAD_CAT_ID":"45368","GP_ID":"192109819","BSTAR":"-0.00000030440000","OBJECT_ID":"2020-019J","ELEMENT_SET_NO":"999","PERIAPSIS":"544.957","ECCENTRICITY":"0.00032750","APOAPSIS":"549.493","EPOCH":"2021-12-20T20:08:35.365344","LAUNCH_DATE":"2020-03-18","OBJECT_NAME":"STARLINK-1276","MEAN_MOTION_DDOT":"0.0000000000000","MEAN_MOTION_DOT":"-0.00000287","SEMIMAJOR_AXIS":"6925.360","CLASSIFICATION_TYPE":"U","DECAY_DATE":null,"FILE":"3245895","EPHEMERIS_TYPE":"0","SITE":"AFETR","INCLINATION":"53.0534","MEAN_ELEMENT_THEORY":"SGP4","REV_AT_EPOCH":"9764","MEAN_MOTION":"15.06396280","MEAN_ANOMALY":"287.8426","CENTER_NAME":"EARTH","TIME_SYSTEM":"UTC","COUNTRY_CODE":"US","TLE_LINE2":"2 45368  53.0534 239.2734 0003275  72.2920 287.8426 15.06396280 97640"},{"PERIAPSIS":"545.704","ECCENTRICITY":"0.00021640","ELEMENT_SET_NO":"999","OBJECT_ID":"2020-019K","NORAD_CAT_ID":"45369","GP_ID":"192110069","BSTAR":"0.00010264000000","MEAN_MOTION_DDOT":"0.0000000000000","MEAN_MOTION_DOT":"0.00001248","EPOCH":"2021-12-20T21:42:45.599616","LAUNCH_DATE":"2020-03-18","OBJECT_NAME":"STARLINK-1277","APOAPSIS":"548.701","REF_FRAME":"TEME","OBJECT_TYPE":"PAYLOAD","TLE_LINE1":"1 45369U 20019K   21354.90469444  .00001248  00000-0  10264-3 0  9995","ARG_OF_PERICENTER":"72.7938","RA_OF_ASC_NODE":"238.9894","PERIOD":"95.592","RCS_SIZE":"LARGE","MEAN_ANOMALY":"287.3288","MEAN_MOTION":"15.06403700","TLE_LINE2":"2 45369  53.0548 238.9894 0002164  72.7938 287.3288 15.06403700 97657","COUNTRY_CODE":"US","TIME_SYSTEM":"UTC","CENTER_NAME":"EARTH","FILE":"3245895","DECAY_DATE":null,"CLASSIFICATION_TYPE":"U","SEMIMAJOR_AXIS":"6925.337","REV_AT_EPOCH":"9765","MEAN_ELEMENT_THEORY":"SGP4","SITE":"AFETR","EPHEMERIS_TYPE":"0","INCLINATION":"53.0548"},{"MEAN_ANOMALY":"296.3344","MEAN_MOTION":"15.06390203","TIME_SYSTEM":"UTC","CENTER_NAME":"EARTH","TLE_LINE2":"2 45370  53.0536 239.0198 0002389  63.7891 296.3344 15.06390203 97658","COUNTRY_CODE":"US","CLASSIFICATION_TYPE":"U","SEMIMAJOR_AXIS":"6925.379","FILE":"3245895","DECAY_DATE":null,"MEAN_ELEMENT_THEORY":"SGP4","INCLINATION":"53.0536","SITE":"AFETR","EPHEMERIS_TYPE":"0","REV_AT_EPOCH":"9765","NORAD_CAT_ID":"45370","GP_ID":"192111320","BSTAR":"-0.00003339000000","ECCENTRICITY":"0.00023890","PERIAPSIS":"545.589","ELEMENT_SET_NO":"999","OBJECT_ID":"2020-019L","APOAPSIS":"548.898","MEAN_MOTION_DOT":"-0.00000779","MEAN_MOTION_DDOT":"0.0000000000000","OBJECT_NAME":"STARLINK-1281","LAUNCH_DATE":"2020-03-18","EPOCH":"2021-12-20T21:28:12.838656","REF_FRAME":"TEME","RCS_SIZE":"LARGE","ARG_OF_PERICENTER":"63.7891","TLE_LINE1":"1 45370U 20019L   21354.89459304 -.00000779  00000-0 -33390-4 0  9995","OBJECT_TYPE":"PAYLOAD","PERIOD":"95.593","RA_OF_ASC_NODE":"239.0198"}];
